[{"OBJECT_NAME":"KUZGTU 1 (RS47S)","OBJECT_ID":"2023-091AV","EPOCH":"2026-03-09T22:22:51.965760","MEAN_MOTION":15.27481352,"ECCENTRICITY":0.0012896,"INCLINATION":97.5178,"RA_OF_ASC_NODE":132.5224,"ARG_OF_PERICENTER":89.3666,"MEAN_ANOMALY":270.9051,"EPHEMERIS_TYPE":0,"CLASSIFICATION_TYPE":"U","NORAD_CAT_ID":57217,"ELEMENT_SET_NO":999,"REV_AT_EPOCH":14921,"BSTAR":0.00057711473,"MEAN_MOTION_DOT":0.00015496,"MEAN_MOTION_DDOT":0},{"OBJECT_NAME":"STARLINK-31730","OBJECT_ID":"2024-074X","EPOCH":"2026-03-09T02:59:21.351552","MEAN_MOTION":15.27556672,"ECCENTRICITY":0.00011459,"INCLINATION":43.003,"RA_OF_ASC_NODE":347.0799,"ARG_OF_PERICENTER":251.2892,"MEAN_ANOMALY":108.7835,"EPHEMERIS_TYPE":0,"CLASSIFICATION_TYPE":"U","NORAD_CAT_ID":59555,"ELEMENT_SET_NO":999,"REV_AT_EPOCH":10592,"BSTAR":-8.0472376e-5,"MEAN_MOTION_DOT":-2.474e-5,"MEAN_MOTION_DDOT":0}]
